{"fetched_at":"2026-07-19T07:05:16.284Z","source":"https://celestrak.org/NORAD/elements/gp.php?NAME=ICEYE&FORMAT=JSON","constellation":"iceye","records":[{"OBJECT_NAME":"ICEYE-X2","OBJECT_ID":"2018-099AU","EPOCH":"2026-07-18T20:24:17.953920","CLASSIFICATION_TYPE":"U","MEAN_MOTION":15.18060846,"ECCENTRICITY":0.0010184,"INCLINATION":97.4333,"RA_OF_ASC_NODE":253.1376,"ARG_OF_PERICENTER":181.8068,"MEAN_ANOMALY":178.3131,"EPHEMERIS_TYPE":0,"NORAD_CAT_ID":43800,"ELEMENT_SET_NO":999,"REV_AT_EPOCH":41762,"BSTAR":0.000069793,"MEAN_MOTION_DOT":0.00001355,"MEAN_MOTION_DDOT":0},{"OBJECT_NAME":"ICEYE-X4","OBJECT_ID":"2019-038D","EPOCH":"2026-07-18T20:37:50.221056","CLASSIFICATION_TYPE":"U","MEAN_MOTION":15.29927976,"ECCENTRICITY":0.0013248,"INCLINATION":97.8744,"RA_OF_ASC_NODE":234.6477,"ARG_OF_PERICENTER":185.0655,"MEAN_ANOMALY":175.0452,"EPHEMERIS_TYPE":0,"NORAD_CAT_ID":44390,"ELEMENT_SET_NO":999,"REV_AT_EPOCH":38664,"BSTAR":0.00020942,"MEAN_MOTION_DOT":0.00005998,"MEAN_MOTION_DDOT":0},{"OBJECT_NAME":"ICEYE-X7","OBJECT_ID":"2020-068L","EPOCH":"2026-07-18T21:18:57.337632","CLASSIFICATION_TYPE":"U","MEAN_MOTION":15.32142778,"ECCENTRICITY":0.0006415,"INCLINATION":97.7514,"RA_OF_ASC_NODE":167.8734,"ARG_OF_PERICENTER":197.945,"MEAN_ANOMALY":162.1565,"EPHEMERIS_TYPE":0,"NORAD_CAT_ID":46496,"ELEMENT_SET_NO":999,"REV_AT_EPOCH":31964,"BSTAR":0.0001985,"MEAN_MOTION_DOT":0.00006078,"MEAN_MOTION_DDOT":0},{"OBJECT_NAME":"ICEYE-X6","OBJECT_ID":"2020-068M","EPOCH":"2026-07-18T20:19:50.386944","CLASSIFICATION_TYPE":"U","MEAN_MOTION":15.04677964,"ECCENTRICITY":0.0006902,"INCLINATION":98.0993,"RA_OF_ASC_NODE":195.0377,"ARG_OF_PERICENTER":359.8999,"MEAN_ANOMALY":0.2223,"EPHEMERIS_TYPE":0,"NORAD_CAT_ID":46497,"ELEMENT_SET_NO":999,"REV_AT_EPOCH":31799,"BSTAR":0.000091791,"MEAN_MOTION_DOT":0.00001224,"MEAN_MOTION_DDOT":0},{"OBJECT_NAME":"ICEYE-X21","OBJECT_ID":"2023-001AS","EPOCH":"2026-06-24T05:11:18.420288","CLASSIFICATION_TYPE":"U","MEAN_MOTION":16.24069885,"ECCENTRICITY":0.00123774,"INCLINATION":97.3001,"RA_OF_ASC_NODE":262.6152,"ARG_OF_PERICENTER":285.9702,"MEAN_ANOMALY":74.0225,"EPHEMERIS_TYPE":0,"NORAD_CAT_ID":55049,"ELEMENT_SET_NO":999,"REV_AT_EPOCH":19475,"BSTAR":0.000602142,"MEAN_MOTION_DOT":0.01585954,"MEAN_MOTION_DDOT":0.000002396838},{"OBJECT_NAME":"ICEYE-X25","OBJECT_ID":"2023-084AH","EPOCH":"2026-07-18T20:06:39.940992","CLASSIFICATION_TYPE":"U","MEAN_MOTION":15.62979019,"ECCENTRICITY":0.0004515,"INCLINATION":97.5921,"RA_OF_ASC_NODE":348.3418,"ARG_OF_PERICENTER":173.8199,"MEAN_ANOMALY":186.3116,"EPHEMERIS_TYPE":0,"NORAD_CAT_ID":56963,"ELEMENT_SET_NO":999,"REV_AT_EPOCH":17291,"BSTAR":0.00020564,"MEAN_MOTION_DOT":0.00018527,"MEAN_MOTION_DDOT":0},{"OBJECT_NAME":"ICEYE-X31","OBJECT_ID":"2023-174AJ","EPOCH":"2026-07-18T21:18:04.523040","CLASSIFICATION_TYPE":"U","MEAN_MOTION":15.35246701,"ECCENTRICITY":0.0003101,"INCLINATION":97.3764,"RA_OF_ASC_NODE":275.6388,"ARG_OF_PERICENTER":175.6264,"MEAN_ANOMALY":184.5007,"EPHEMERIS_TYPE":0,"NORAD_CAT_ID":58288,"ELEMENT_SET_NO":999,"REV_AT_EPOCH":14961,"BSTAR":0.00026908,"MEAN_MOTION_DOT":0.0000913,"MEAN_MOTION_DDOT":0},{"OBJECT_NAME":"ICEYE-X34","OBJECT_ID":"2023-174AQ","EPOCH":"2026-07-18T19:44:50.973216","CLASSIFICATION_TYPE":"U","MEAN_MOTION":15.72105442,"ECCENTRICITY":0.0002068,"INCLINATION":97.3851,"RA_OF_ASC_NODE":292.6994,"ARG_OF_PERICENTER":220.9257,"MEAN_ANOMALY":139.1852,"EPHEMERIS_TYPE":0,"NORAD_CAT_ID":58294,"ELEMENT_SET_NO":999,"REV_AT_EPOCH":15070,"BSTAR":0.00082648,"MEAN_MOTION_DOT":0.00109364,"MEAN_MOTION_DDOT":0},{"OBJECT_NAME":"ICEYE-X35","OBJECT_ID":"2023-174AY","EPOCH":"2026-07-18T20:35:27.930624","CLASSIFICATION_TYPE":"U","MEAN_MOTION":15.5541318,"ECCENTRICITY":0.0007445,"INCLINATION":97.3779,"RA_OF_ASC_NODE":285.3729,"ARG_OF_PERICENTER":95.8366,"MEAN_ANOMALY":264.3737,"EPHEMERIS_TYPE":0,"NORAD_CAT_ID":58302,"ELEMENT_SET_NO":999,"REV_AT_EPOCH":15026,"BSTAR":0.00047237,"MEAN_MOTION_DOT":0.00032166,"MEAN_MOTION_DDOT":0},{"OBJECT_NAME":"ICEYE-X38","OBJECT_ID":"2024-043C","EPOCH":"2026-07-18T20:42:11.295072","CLASSIFICATION_TYPE":"U","MEAN_MOTION":15.13109103,"ECCENTRICITY":0.0002021,"INCLINATION":97.8445,"RA_OF_ASC_NODE":344.4929,"ARG_OF_PERICENTER":10.2747,"MEAN_ANOMALY":349.8524,"EPHEMERIS_TYPE":0,"NORAD_CAT_ID":59100,"ELEMENT_SET_NO":999,"REV_AT_EPOCH":11646,"BSTAR":0.00012295,"MEAN_MOTION_DOT":0.00002107,"MEAN_MOTION_DDOT":0},{"OBJECT_NAME":"ICEYE-X37","OBJECT_ID":"2024-043E","EPOCH":"2026-07-18T17:40:11.105760","CLASSIFICATION_TYPE":"U","MEAN_MOTION":15.06304516,"ECCENTRICITY":0.0013911,"INCLINATION":97.8347,"RA_OF_ASC_NODE":337.243,"ARG_OF_PERICENTER":261.0278,"MEAN_ANOMALY":98.9374,"EPHEMERIS_TYPE":0,"NORAD_CAT_ID":59102,"ELEMENT_SET_NO":999,"REV_AT_EPOCH":12983,"BSTAR":0.00014419,"MEAN_MOTION_DOT":0.00002057,"MEAN_MOTION_DDOT":0},{"OBJECT_NAME":"ICEYE-X36","OBJECT_ID":"2024-043F","EPOCH":"2026-07-18T20:30:03.297312","CLASSIFICATION_TYPE":"U","MEAN_MOTION":15.07250673,"ECCENTRICITY":0.0005573,"INCLINATION":97.8407,"RA_OF_ASC_NODE":338.5009,"ARG_OF_PERICENTER":199.8091,"MEAN_ANOMALY":160.2921,"EPHEMERIS_TYPE":0,"NORAD_CAT_ID":59103,"ELEMENT_SET_NO":999,"REV_AT_EPOCH":12991,"BSTAR":0.00014993,"MEAN_MOTION_DOT":0.00002195,"MEAN_MOTION_DDOT":0},{"OBJECT_NAME":"ICEYE-X43","OBJECT_ID":"2024-149BZ","EPOCH":"2026-07-18T18:54:12.381120","CLASSIFICATION_TYPE":"U","MEAN_MOTION":14.99791438,"ECCENTRICITY":0.0006373,"INCLINATION":97.6788,"RA_OF_ASC_NODE":276.3284,"ARG_OF_PERICENTER":331.4769,"MEAN_ANOMALY":28.6105,"EPHEMERIS_TYPE":0,"NORAD_CAT_ID":60539,"ELEMENT_SET_NO":999,"REV_AT_EPOCH":10485,"BSTAR":0.000050859,"MEAN_MOTION_DOT":0.0000057,"MEAN_MOTION_DDOT":0},{"OBJECT_NAME":"ICEYE-X39","OBJECT_ID":"2024-149CG","EPOCH":"2026-07-18T18:19:26.298048","CLASSIFICATION_TYPE":"U","MEAN_MOTION":15.00088707,"ECCENTRICITY":0.000684,"INCLINATION":97.6797,"RA_OF_ASC_NODE":276.3631,"ARG_OF_PERICENTER":36.6772,"MEAN_ANOMALY":323.4918,"EPHEMERIS_TYPE":0,"NORAD_CAT_ID":60546,"ELEMENT_SET_NO":999,"REV_AT_EPOCH":10485,"BSTAR":0.0001752,"MEAN_MOTION_DOT":0.00002125,"MEAN_MOTION_DDOT":0},{"OBJECT_NAME":"ICEYE-X33","OBJECT_ID":"2024-149CJ","EPOCH":"2026-07-18T18:28:42.409056","CLASSIFICATION_TYPE":"U","MEAN_MOTION":15.00902716,"ECCENTRICITY":0.0001863,"INCLINATION":97.7374,"RA_OF_ASC_NODE":278.7543,"ARG_OF_PERICENTER":70.9954,"MEAN_ANOMALY":289.1471,"EPHEMERIS_TYPE":0,"NORAD_CAT_ID":60548,"ELEMENT_SET_NO":999,"REV_AT_EPOCH":10494,"BSTAR":0.00019563,"MEAN_MOTION_DOT":0.0000243,"MEAN_MOTION_DDOT":0}]}
