ICEYE-X2                
1 43800U 18099AU  26199.85020780  .00001355  00000+0  69793-4 0  9990
2 43800  97.4333 253.1376 0010184 181.8068 178.3131 15.18060846417622
ICEYE-X4                
1 44390U 19038D   26199.85960904  .00005998  00000+0  20942-3 0  9999
2 44390  97.8744 234.6477 0013248 185.0655 175.0452 15.29927976386640
ICEYE-X7                
1 46496U 20068L   26199.88816363  .00006078  00000+0  19850-3 0  9991
2 46496  97.7514 167.8734 0006415 197.9450 162.1565 15.32142778319640
ICEYE-X6                
1 46497U 20068M   26199.84711096  .00001224  00000+0  91791-4 0  9998
2 46497  98.0993 195.0377 0006902 359.8999   0.2223 15.04677964317998
ICEYE-X21               
1 55049U 23001AS  26175.21618542  .01585954  23968-5  60214-3 0  9995
2 55049  97.3001 262.6152 0012377 285.9702  74.0225 16.24069885194757
ICEYE-X25               
1 56963U 23084AH  26199.83796228  .00018527  00000+0  20564-3 0  9990
2 56963  97.5921 348.3418 0004515 173.8199 186.3116 15.62979019172913
ICEYE-X31               
1 58288U 23174AJ  26199.88755235  .00009130  00000+0  26908-3 0  9998
2 58288  97.3764 275.6388 0003101 175.6264 184.5007 15.35246701149614
ICEYE-X34               
1 58294U 23174AQ  26199.82281219  .00109364  00000+0  82648-3 0  9998
2 58294  97.3851 292.6994 0002068 220.9257 139.1852 15.72105442150700
ICEYE-X35               
1 58302U 23174AY  26199.85796216  .00032166  00000+0  47237-3 0  9999
2 58302  97.3779 285.3729 0007445  95.8366 264.3737 15.55413180150264
ICEYE-X38               
1 59100U 24043C   26199.86263073  .00002107  00000+0  12295-3 0  9991
2 59100  97.8445 344.4929 0002021  10.2747 349.8524 15.13109103116462
ICEYE-X37               
1 59102U 24043E   26199.73623965  .00002057  00000+0  14419-3 0  9993
2 59102  97.8347 337.2430 0013911 261.0278  98.9374 15.06304516129834
ICEYE-X36               
1 59103U 24043F   26199.85420483  .00002195  00000+0  14993-3 0  9997
2 59103  97.8407 338.5009 0005573 199.8091 160.2921 15.07250673129919
ICEYE-X43               
1 60539U 24149BZ  26199.78764330  .00000570  00000+0  50859-4 0  9990
2 60539  97.6788 276.3284 0006373 331.4769  28.6105 14.99791438104859
ICEYE-X39               
1 60546U 24149CG  26199.76349882  .00002125  00000+0  17520-3 0  9992
2 60546  97.6797 276.3631 0006840  36.6772 323.4918 15.00088707104859
ICEYE-X33               
1 60548U 24149CJ  26199.76993529  .00002430  00000+0  19563-3 0  9995
2 60548  97.7374 278.7543 0001863  70.9954 289.1471 15.00902716104941
